{
  "version": 1,
  "fetchedAt": "2026-06-21T12:32:46.387Z",
  "source": "celestrak-gp",
  "counts": {
    "station": 24,
    "satellite": 520,
    "debris": 250
  },
  "objects": [
    {
      "id": "28649",
      "name": "IRS-P5 (CARTOSAT-1)",
      "noradId": 28649,
      "line1": "1 28649U 05017A   26171.03106645  .00000963  00000+0  10255-3 0  9997",
      "line2": "2 28649  97.5305 193.9666 0002525  76.4954 283.6546 14.91055438144248",
      "category": "satellite"
    },
    {
      "id": "39731",
      "name": "KAZEOSAT 1",
      "noradId": 39731,
      "line1": "1 39731U 14024A   26172.18476906 -.00000023  00000+0  58729-5 0  9994",
      "line2": "2 39731  98.3200 244.5330 0001269  77.9759 282.1573 14.42081019639130",
      "category": "satellite"
    },
    {
      "id": "40010",
      "name": "KAZEOSAT 2",
      "noradId": 40010,
      "line1": "1 40010U 14033A   26172.20428880  .00000370  00000+0  48734-4 0  9995",
      "line2": "2 40010  97.5405  11.6035 0007522 315.2430  44.8179 14.85474351649551",
      "category": "satellite"
    },
    {
      "id": "41240",
      "name": "JASON-3",
      "noradId": 41240,
      "line1": "1 41240U 16002A   26171.42010391 -.00000038  00000+0  96061-4 0  9994",
      "line2": "2 41240  66.0406 119.0381 0008478 272.6497  87.3551 12.87628140487661",
      "category": "satellite"
    },
    {
      "id": "61735",
      "name": "IONOSFERA-M 1",
      "noradId": 61735,
      "line1": "1 61735U 24199A   26171.42878397  .00000023  00000+0  29904-4 0  9994",
      "line2": "2 61735  98.7170  44.5668 0002042 106.2287 253.9115 14.22754851128166",
      "category": "satellite"
    },
    {
      "id": "61736",
      "name": "IONOSFERA-M 2",
      "noradId": 61736,
      "line1": "1 61736U 24199B   26171.39274542  .00000024  00000+0  30228-4 0  9995",
      "line2": "2 61736  98.7169  44.4417 0000914  38.0352 322.0890 14.22758106131289",
      "category": "satellite"
    },
    {
      "id": "64876",
      "name": "IONOSFERA-M 3",
      "noradId": 64876,
      "line1": "1 64876U 25155A   26172.18758938  .00000032  00000+0  34193-4 0  9994",
      "line2": "2 64876  98.6033 133.9920 0001265 150.0377 210.0874 14.21487002 46973",
      "category": "satellite"
    },
    {
      "id": "64877",
      "name": "IONOSFERA-M 4",
      "noradId": 64877,
      "line1": "1 64877U 25155B   26172.15203598  .00000034  00000+0  34956-4 0  9998",
      "line2": "2 64877  98.6031 133.8747 0001199 119.4255 240.7042 14.21489244 46964",
      "category": "satellite"
    },
    {
      "id": "41752",
      "name": "INSAT-3DR",
      "noradId": 41752,
      "line1": "1 41752U 16054A   26171.40667204 -.00000081  00000+0  00000+0 0  9999",
      "line2": "2 41752   0.1148  86.2468 0010425 187.4441 215.2920  1.00271300 35856",
      "category": "satellite"
    },
    {
      "id": "58990",
      "name": "INSAT-3DS",
      "noradId": 58990,
      "line1": "1 58990U 24033A   26171.40823205 -.00000160  00000+0  00000+0 0  9990",
      "line2": "2 58990   0.0479 106.3313 0001171 331.3573  59.9873  1.00271082 47109",
      "category": "satellite"
    }
  ]
}